TDRS 3                  
1 19548U 88091B   23318.98119118 -.00000285  00000+0  00000+0 0  9992
2 19548  13.3309 347.4419 0038859 330.4575  39.9521  1.00263194115899
HST                     
1 20580U 90037B   23318.77758622  .00005102  00000+0  25732-3 0  9994
2 20580  28.4707 344.9409 0002680 202.9341 322.7593 15.14835091644300
TDRS 5                  
1 21639U 91054B   23319.31590091  .00000100  00000+0  00000+0 0  9995
2 21639  14.1906   0.6986 0023345 355.8731   4.0435  1.00275061118235
TDRS 6                  
1 22314U 93003B   23318.54636492 -.00000279  00000+0  00000+0 0  9990
2 22314  14.1569   3.9963 0009906 164.2848  35.8041  1.00278789112925
TDRS 7                  
1 23613U 95035B   23318.57801490 -.00000186  00000+0  00000+0 0  9992
2 23613  13.7733 354.7563 0022466  67.4398 283.9160  1.00277561103766
ISS (ZARYA)             
1 25544U 98067A   23319.53465485  .00014606  00000+0  26950-3 0  9999
2 25544  51.6431 298.8848 0000798 288.3336 174.2333 15.49347168425266
LANDSAT 7               
1 25682U 99020A   23319.44818219  .00000545  00000+0  12174-3 0  9999
2 25682  97.9131 351.1495 0001088  85.9582  21.5588 14.60328814307856
TERRA                   
1 25994U 99068A   23319.44985162  .00000670  00000+0  15079-3 0  9995
2 25994  98.0782  23.9773 0001184 359.3796  57.2554 14.59435434271844
TDRS 8                  
1 26388U 00034A   23319.35396564  .00000112  00000+0  00000+0 0  9995
2 26388  11.1931  38.8991 0004699 204.5776 130.3757  1.00270657 85706
TIMED                   
1 26998U 01055B   23319.44941370  .00001571  00000+0  16532-3 0  9998
2 26998  74.0708 330.5142 0001133 315.3404  44.7686 14.90363183189964
TDRS 9                  
1 27389U 02011A   23319.12822383 -.00000224  00000+0  00000+0 0  9997
2 27389  10.1382  55.8082 0005424 129.5773 244.6471  0.98984014 80923
AQUA                    
1 27424U 02022A   23319.44320865  .00001344  00000+0  29919-3 0  9999
2 27424  98.3042 263.4813 0002046  73.2092  37.4069 14.58560548145408
TDRS 10                 
1 27566U 02055A   23319.35614469  .00000107  00000+0  00000+0 0  9990
2 27566   9.1581  46.8474 0002789 306.3426  18.2220  1.00277847 76751
SORCE                   
1 27651U 03004A   23318.86675801  .00003154  00000+0  30911-3 0  9995
2 27651  39.9928 213.5845 0018749 154.4815 205.6905 14.93182275130034
AURA                    
1 28376U 04026A   23319.46755566  .00001327  00000+0  29915-3 0  9991
2 28376  98.2266 261.2213 0001685  68.7067 291.4312 14.57962426 28426
SWIFT                   
1 28485U 04047A   23318.54814394  .00009779  00000+0  50049-3 0  9999
2 28485  20.5573 278.0765 0009091  21.1404 338.9406 15.13687560 41557
THEMIS A                
1 30580U 07004A   23318.23237965 -.00000416  00000+0 -81458-1 0  9990
2 30580  10.9649 284.0682 8318704 279.2870  33.2064  0.87834085 32964
THEMIS D                
1 30797U 07004D   23318.26708687 -.00000354  00000+0  00000+0 0  9999
2 30797   7.3910 274.6960 8289333 292.1033  31.0314  0.87834918 32766
THEMIS E                
1 30798U 07004E   23318.27011200 -.00000404  00000+0  00000+0 0  9995
2 30798   8.5652 293.9614 8292270 274.4168  49.1817  0.87832699 57601
AIM                     
1 31304U 07015A   23319.44103276  .00030405  00000+0  79462-3 0  9991
2 31304  97.8843 270.0833 0005153  53.8019 306.3701 15.38712538909860
FGRST (GLAST)           
1 33053U 08029A   23319.18093410  .00003775  00000+0  17984-3 0  9990
2 33053  25.5827 243.8466 0011592  48.9509 311.2028 15.15127316852139
WISE                    
1 36119U 09071A   23319.45559949  .00020341  00000+0  38702-3 0  9997
2 36119  97.1773 350.7620 0001296 147.2073 212.9259 15.48257298774897
TDRS 11                 
1 39070U 13004A   23319.09950635  .00000100  00000+0  00000+0 0  9991
2 39070   2.6940   3.6866 0002705  68.3502 203.3071  1.00270899 39508
TDRS 12                 
1 39504U 14004A   23319.12613528 -.00000251  00000+0  00000+0 0  9993
2 39504   3.5715 358.1652 0004682 221.0691 199.2670  1.00272841 35978
GPM-CORE                
1 39574U 14009C   23319.39747097  .00015899  00000+0  35163-3 0  9998
2 39574  64.9901 231.7653 0012012 278.0369  81.9408 15.43921435551904
MMS 1                   
1 40482U 15011A   23319.08334491 -.00000125  00000+0  00000+0 0  9993
2 40482  34.4659  35.6874 9148315 124.4426 103.5723  0.28443447 14763
MMS 2                   
1 40483U 15011B   23318.83335648 -.00000099  00000+0  00000+0 0  9991
2 40483  34.4676  35.6841 9148838 124.4922  77.9080  0.28443549  1385
MMS 3                   
1 40484U 15011C   23318.83335648 -.00000099  00000+0  00000+0 0  9992
2 40484  34.4643  35.7118 9145343 124.5506  77.7411  0.28441611  1389
MMS 4                   
1 40485U 15011D   23318.83335648 -.00000099  00000+0  00000+0 0  9993
2 40485  34.4522  35.7016 9146656 124.5183  77.8305  0.28442562  1381
TDRS 13                 
1 42915U 17047A   23318.98867513 -.00000081  00000+0  00000+0 0  9992
2 42915   3.8386 340.3827 0013384 126.8200 291.0559  1.00271644 22905
JPSS-1                  
1 43013U 17073A   23319.45242786  .00000137  00000+0  85570-4 0  9994
2 43013  98.7264 255.5700 0001605  80.0513 280.0844 14.19537856310438
